name,city,country,iso3166,country
Angola Internet Exchange,Luanda,Angola,AO,Angola
Botswana Internet Exchange,Gaborone,Botswana,BW,Botswana
Middle East Internet Exchange,Cairo,Egypt,EG,Egypt
Ghana Internet Exchange,Accra,Ghana,GH,Ghana
Kenya Internet Exchange,Nairobi,Kenya,KE,Kenya
Lesotho Internet Exchange Point,Maseru,Lesotho,LS,Lesotho
Mozambique Internet Exchange,Maputo,Mozambique,MZ,Mozambique
Sudanese Internet Exchange Point,Khartoum,Sudan,SD,Sudan
Uganda Internet Exchange Point,Kampala,Uganda,UG,Uganda
Zimbabwe Internet Exchange,Harare,Zimbabwe,ZW,Zimbabwe
Cambodia Internet Exchange,Phnom Penh,Cambodia,KH,Cambodia
TerraMark,Beijing,China,CN,China
Hong Kong Internet Exchange,Hong Kong,Hong Kong,HK,Hong Kong
Equinix,Hong Kong,Hong Kong,HK,Hong Kong
Access Internet eXchange,Jakarta,Indonesia,ID,Indonesia
National Inter Connection Exchange,Jakarta,Indonesia,ID,Indonesia
Indonesia Internet Exchange,Jakarta,Indonesia,ID,Indonesia
Napsindo International Internet Exchange,Jakarta,Indonesia,ID,Indonesia
National Internet Exchange of India,New Delhi,India,,
Israeli Internet eXchange,Jerusalem,Israel,IL,Israel
Japan Network Access Point,Tokyo,Japan,JP,Japan
Japan Network Access Point|JPNAP6,Tokyo,Japan,JP,Japan
Japan Internet Exchange,Tokyo,Japan,JP,Japan
DIX-IE,Tokyo,Japan,JP,Japan
NSPIXP-6,Tokyo,Japan,JP,Japan
Asia Internet Exchange Network Access Point Malaysia,Kuala Lumpur,Malaysia,MY,Malaysia
Malaysia Internet Exchange,Kuala Lumpur,Malaysia,MY,Malaysia
Philippine Open Internet Exchange (PhOPENIX),Manila,Philippines,PH,Philippines
Philippine Internet Exchange,Manila,Philippines,PH,Philippines
Philippine Common Routing Exchange,Manila,Philippines,PH,Philippines
Singapore Open eXchange,Singapur,Singapore,SG,Singapore
Singapore Internet Exchange,Singapur,Singapore,SG,Singapore
SingTel Internet Exchange,Singapur,Singapore,SG,Singapore
Sri Lanka Internet Exchange,Colombo,Sri Lanka,LK,Sri Lanka
Taiwan Network Access Point,Taipei,Taiwan,TW,Taiwan
TWIX,Taipei,Taiwan,TW,Taiwan
CAT Telecom National Internet Exchange,Bangkok,Thailand,TH,Thailand
TOT National Internet Exchange,Bangkok,Thailand,TH,Thailand
True Internet Gateway National Internet Exchange,Bangkok,Thailand,TH,Thailand
Advance Datanetwork Communication National Internet Exchange,Bangkok,Thailand,TH,Thailand
CS Loxinfo National Internet Exchange,Bangkok,Thailand,TH,Thailand
TT&T Global Network National Internet Exchange,Bangkok,Thailand,TH,Thailand
Jastel Network Internet Exchange,Bangkok,Thailand,TH,Thailand
NECTEC IIR Public Internet Exchange,Bangkok,Thailand,TH,Thailand
FPT Group,Hanoi,Vietnam,VN,Vietnam
HANOITELECOM,Hanoi,Vietnam,VN,Vietnam
SAIGONPOSTEL,Hanoi,Vietnam,VN,Vietnam
VietNam Internet eXchange,Hanoi,Vietnam,VN,Vietnam
VNPT,Hanoi,Vietnam,VN,Vietnam
VP TELECOM,Hanoi,Vietnam,VN,Vietnam
VIETTEL,Hanoi,Vietnam,VN,Vietnam
Tashkent Internet Exchange,Tashkent,Uzbekistan,UZ,Uzbekistan
Yerevan,Yerevan,Armenia,AM,Armenia
Bulgarian Internet eXchange,Sofia,Bulgaria,BG,Bulgaria
Varna Internet Exchange,Sofia,Bulgaria,BG,Bulgaria
Croatian Internet Exchange,Zagreb,Croatia,HR,Croatia
Cyprus Internet Exchange,Nicosia,Cyprus,CY,Cyprus
Nautilus Mediterranean Exchange Point,Rome,Italy,IT,Italy
Balcan-IX,Bucharest,Romania,RO,Romania
Home-IX,Moscow,Russia,RU,Russia
IXNN,Moscow,Russia,RU,Russia
KRS-IX,Moscow,Russia,RU,Russia
Moscow Internet Exchange,Moscow,Russia,RU,Russia
Saint Petersburg,Moscow,Russia,RU,Russia
Turkish Information Exchange,Ankara,Turkey,TR,Turkey
Israeli Internet Exchange,Jerusalem,Israel,IL,Israel
Middle East Internet Exchange,Cairo,Egypt,EG,Egypt
UAE Internet Exchange (UAE-IX),Abu Dhabi,United Arab Emirates,AE,United Arab Emirates
Etisalat Smarthub IPX,Abu Dhabi,United Arab Emirates,AE,United Arab Emirates
ExchangeNET,Wellington,New Zealand,NZ,New Zealand
BC Internet Exchange,Ottawa,Canada,CA,Canada
Greater Toronto International Internet Exchange,Ottawa,Canada,CA,Canada
Niagara Region International Internet Exchange,Ottawa,Canada,CA,Canada
Telx Internet Exchange,Washington,United States,US,United States
MAE-Central,Washington,United States,US,United States
MAE-East,Washington,United States,US,United States
MAE-West,Washington,United States,US,United States
InteRed,Panama City,Panama,PA,Panama
OCIX,Philipsburg,Sint Maarten,SX,Sint Maarten
Grenada Internet Exchange (GREX),St. George's,Grenada,GD,Grenada
Dominica National Internet Exchange Point (DANIX),Roseau,Dominica,DM,Dominica
CABASE,Buenos Aires,Argentina,AR,Argentina
NAP.cl,Santiago,Chile,CL,Chile
NAP Colombia,Bogota,Colombia,CO,Colombia
NAP Ecuador,Quito,Ecuador,EC,Ecuador
NAP.pe,Lima,Peru,PE,Peru
Internet Exchange Point of Nigeria,Lagos,Nigeria,NG,Nigeria
Ibadan Internet Exchange,Ibadan,Nigeria,NG,Nigeria
Rwanda Internet Exchange,Rwanda,Rwanda,RW,Rwanda
Cape Town Internet Exchange,Cape Town,South Africa,ZA,South Africa
Johannesburg Internet Exchange,Johannesburg,South Africa,ZA,South Africa
The Neutral Internet Exchange,Centurion,South Africa,ZA,South Africa
Tanzania Internet eXchange,Dar es Salaam,Tanzania,TZ,Tanzania
Arusha Internet Exchange Point,Arusha,Tanzania,TZ,Tanzania
Lusaka IXP,Lusaka,Zambia,ZM,Zambia
Bangladesh Internet Exchange,Dhaka,Bangladesh,BD,Bangladesh
Shanghai City Exchange,Shanghai,China,CN,China
Shanghai Internet Exchange Center,Shanghai,China,CN,China
Matrix Cable Internet Exchange,Jakarta,Indonesia,ID,Indonesia
Biznet Internet Exchange,Jakarta,Indonesia,ID,Indonesia
Japan Network Access Point|JPNAP,Osaka,Japan,JP,Japan
Kazakhstan Internet Exchange,Almaty,Kazakhstan,KZ,Kazakhstan
Kuala Lumpur Internet Exchange,Kuala Lumpur,Malaysia,MY,Malaysia
OpenMIX,Ulaanbaatar,Mongolia,MN,Mongolia
Nepal Internet Exchange,Kathmandu,Nepal,NP,Nepal
Alpes Adria Internet Exchange,Klagenfurt,Austria,AT,Austria
Vienna Internet Exchange,Vienna,Austria,AT,Austria
Rheintal Internet Exchange,Vorarlberg,Austria,AT,Austria
Belgian National Internet eXchange,Brussels,Belgium,BE,Belgium
Free Belgian Internet Exchange,Brussels,Belgium,BE,Belgium
Neutral Internet Exchange of the Czech Republic,Prague,Czech Republic,CZ,Czech Republic
Commercial Brno Internet Exchange,Brno,Czech Republic,CZ,Czech Republic
Danish Internet Exchange Point,Kongens Lyngby,Denmark,DK,Denmark
Tallinn Internet Exchange,Tallinn,Estonia,EE,Estonia
Tallinn Internet Exchange (2),Tallinn,Estonia,EE,Estonia
Finnish Communication and Internet Exchange,Helsinki,Finland,FI,Finland
Tampere Region Exchange,Tampere,Finland,FI,Finland
France-IX,Paris,France,FR,France
French National Internet Exchange IPv6,Paris,France,FR,France
Metropolitan Area Ethernet,Paris,France,FR,France
Mix Internet Exchange and Transit,Paris,France,FR,France
Paris Internet Exchange,Paris,France,FR,France
Paris Operators for Universal Internet Exchange,Paris,France,FR,France
Service for French Internet Exchange,Paris,France,FR,France
Free Internet Exchange,Paris,France,FR,France
Paris NAP,Paris,France,FR,France
EuroGIX,Alsace,France,FR,France
Grenoble Network Initiative,Grenoble,France,FR,France
Lyon Internet Exchange,Lyon,France,FR,France
Marseille Internet eXchange,Marseille,France,FR,France
PhibIX,Saint-Étienne,France,FR,France
Alps Internet Exchange,Munich,Germany,DE,Germany
Berlin Commercial Internet Exchange,BCIX,Germany,DE,Germany
German Internet Exchange,DE-CIX,Germany,DE,Germany
International Internet Exchange,DataIX,Germany,DE,Germany
European Commercial Internet Exchange,ECIX,Germany,DE,Germany
Frankfurt Internet Exchange,Frankfurt,Germany,DE,Germany
Frankfurt Network Access Point,Frankfurt,Germany,DE,Germany
INXS Hamburg,Hamburg,Germany,DE,Germany
WorkIX Hamburg,Hamburg,Germany,DE,Germany
INXS Munich,Munich,Germany,DE,Germany
Kleyer Rebstöcker InternetExchange,Frankfurt,Germany,DE,Germany
MAE Frankfurt,Frankfurt,Germany,DE,Germany
Munich Commercial Internet Exchange,Munich,Germany,DE,Germany
Nürnberger Internet Exchange,Nuremberg,Germany,DE,Germany
Athens Internet Exchange,Athens,Greece,GR,Greece
Greek Internet Exchange,Athens,Greece,GR,Greece
Budapest Internet Exchange,Budapest,Hungary,HU,Hungary
Reykjavik Internet Exchange|Reykjavík Internet Exchange,Reykjavík,Iceland,IS,Iceland
Internet Neutral Exchange,Dublin,Ireland,IE,Ireland
Friuli Venezia Giulia Internet Exchange,Udine,Italy,IT,Italy
Milan Internet Exchange,Milan,Italy,IT,Italy
Torino Piemonte Exchange Point,Turin,Italy,IT,Italy
Tuscany Internet Exchange,Florence,Italy,IT,Italy
Kosovo Internet Exchange,Pristina,Kosovo,XK,Kosovo
Latvian Internet Exchange,Riga,Latvia,LV,Latvia
Santa Monica Internet Local Exchange,Riga,Latvia,LV,Latvia
Rheintal Internet Exchange,Liechtenstein,Liechtenstein,LI,Liechtenstein
Lithuanian Internet Exchange,Vilnius,Lithuania,LT,Lithuania
Luxembourg Internet Exchange,Luxembourg,Luxembourg,LU,Luxembourg
Luxembourg Commercial Internet Exchange,Luxembourg,Luxembourg,LU,Luxembourg
Malta Internet Exchange,Msida,Malta,MT,Malta
Moldavian Internet Exchange,Chişinău,Moldova,MD,Moldova
Amsterdam Internet Exchange,Amsterdam,Netherlands,NL,Netherlands
Netherlands Internet Exchange,Amsterdam,Netherlands,NL,Netherlands
Nederlands-Duitse Internet Exchange,Enschede,Netherlands,NL,Netherlands
Groningen Internet Exchange,Groningen,Netherlands,NL,Netherlands
Friese Internet Exchange,Leeuwarden,Netherlands,NL,Netherlands
XchangePoint Amsterdam IPP,Amsterdam,Netherlands,NL,Netherlands
Den Haag Internet Exchange,The Hague,Netherlands,NL,Netherlands
Rotterdam Internet eXchange,Rotterdam,Netherlands,NL,Netherlands
Norwegian Internet Exchange,Oslo,Norway,NO,Norway
Free Internet eXchange Oslo,Oslo,Norway,NO,Norway
Polish Internet Exchange,Warsaw,Poland,PL,Poland
Warsaw Internet Exchange,Warsaw,Poland,PL,Poland
GIGAbit Portuguese Internet Exchange,Lisbon,Portugal,PT,Portugal
Romanian Network for Internet Exchange,Bucharest,Romania,RO,Romania
InterLAN Internet Exchange,Bucharest,Romania,RO,Romania
Tomis Internet eXchange,Constanța,Romania,RO,Romania
Chelyabinsk Peering Point Ural,Chelyabinsk,Russia,RU,Russia
DataIX,Saint Petersburg,Russia,RU,Russia
EKT-IX,Yekaterinburg,Russia,RU,Russia
PIRIX,Saint Petersburg,Russia,RU,Russia
KZN-IX,Kazan,Russia,RU,Russia
NSK-IX,Novosibirsk,Russia,RU,Russia
RND-IX,Rostov,Russia,RU,Russia
Samara Internet Exchange,Samara,Russia,RU,Russia
Saint Petersburg Internet Exchange,Saint Petersburg,Russia,RU,Russia
SVAO-IX,Moscow,Russia,RU,Russia
VLV-IX,Vladivostok,Russia,RU,Russia
Serbian Open eXchange,Belgrade,Serbia,RS,Serbia
Slovak Internet Exchange,Bratislava,Slovakia,SK,Slovakia
Slovenian Internet Exchange,Ljubljana,Slovenia,SI,Slovenia
Catalunya Neutral Internet Exchange,Barcelona,Spain,ES,Spain
Nap de las Americas,Terremark,Spain,ES,Spain
España Internet Exchange,Madrid,Spain,ES,Spain
Galicia Neutral Internet Exchange,Santiago de Compostela,Spain,ES,Spain
Punto Neutro Vasco,San Sebastián,Spain,ES,Spain
BOR-IX,Borås,Sweden,SE,Sweden
IXOR,Malmö,Sweden,SE,Sweden
Netnod Internet Exchange i Sverige,Stockholm,Sweden,SE,Sweden
GIX,Göteborg,Sweden,SE,Sweden
SOL-IX,Stockholm,Sweden,SE,Sweden
STHIX,Stockholm,Sweden,SE,Sweden
NorrNod,Umeå,Sweden,SE,Sweden
CERN Internet Exchange Point,Geneva,Switzerland,CH,Switzerland
Swiss Internet Exchange,Zürich,Switzerland,CH,Switzerland
Telehouse Internet Exchange,Zürich,Switzerland,CH,Switzerland
Rheintal Internet Exchange,Rhine Valley,Switzerland,CH,Switzerland
Ukrainian Internet Exchange Network (UA-IX),Kiev,Ukraine,UA,Ukraine
Digital Telecom Internet Exchange,Kiev,Ukraine,UA,Ukraine
Donetsk Internet Exchange Point,Donetsk,Ukraine,UA,Ukraine
Kharkiv Internet Exchange,Kharkiv,Ukraine,UA,Ukraine
Kherson Internet Exchange,Kherson,Ukraine,UA,Ukraine
Odessa Internet Exchange,Odessa,Ukraine,UA,Ukraine
Zaporizhia Internet Exchange,Zaporizhia,Ukraine,UA,Ukraine
IXLeeds,Leeds,United Kingdom,GB,United Kingdom
IX Manchester,Manchester,United Kingdom,GB,United Kingdom
London Internet Exchange,London,United Kingdom,GB,United Kingdom
London Internet Providers Exchange,London,United Kingdom,GB,United Kingdom
London Network Access Point,London,United Kingdom,GB,United Kingdom
Manchester Commercial Internet Exchange,Manchester,United Kingdom,GB,United Kingdom
Manchester Network Access Point,Manchester,United Kingdom,GB,United Kingdom
Meridian Gate Internet Exchange,London,United Kingdom,GB,United Kingdom
Packet Exchange,London,United Kingdom,GB,United Kingdom
Redbus Internet Exchange,London,United Kingdom,GB,United Kingdom
xChangepoint,London,United Kingdom,GB,United Kingdom
Beirut Internet Exchange,Beirut,Lebanon,LB,Lebanon
Cairo Internet Exchange,Cairo,Egypt,EG,Egypt
Cairo Regional Internet Exchange,Cairo,Egypt,EG,Egypt
Equinix,Sydney,Australia,AU,Australia
PIPE Networks,Brisbane,Australia,AU,Australia
AUSIX,Melbourne,Australia,AU,Australia
Brisbane Internet Exchange,Brisbane,Australia,AU,Australia
Lismore Internet Exchange,Lismore,Australia,AU,Australia
MEL BONE,Melbourne,Australia,AU,Australia
Melbourne NAPette,Melbourne,Australia,AU,Australia
Newcastle Internet Exchange,Newcastle,Australia,AU,Australia
South Australian Internet Exchange,Adelaide,Australia,AU,Australia
Sydney Internet Exchange,Sydney,Australia,AU,Australia
Victorian Internet Exchange,Victoria,Australia,AU,Australia
Western Australian Internet Exchange,Perth,Australia,AU,Australia
Wollongong Internet Exchange,Wollongong,Australia,AU,Australia
Ottawa Internet Exchange,Ottawa,Canada,CA,Canada
Quebec Internet Exchange,Quebec,Canada,CA,Canada
Toronto Internet Exchange,Toronto,Canada,CA,Canada
Montreal Internet Exchange,Montreal,Canada,CA,Canada
Winnipeg Internet Exchange,Winnipeg,Canada,CA,Canada
Calgary Internet Exchange,Calgary,Canada,CA,Canada
AADS (IXP),Chicago,United States,US,United States
Any2,Los Angeles,United States,US,United States
ArizonaIX,Phoenix,United States,US,United States
,Atlanta,United States,US,United States
Phoenix,Phoenix,United States,US,United States
Big APE,New York City,United States,US,United States
BNIIX,Buffalo,United States,US,United States
Boston Internet Exchange,Boston,United States,US,United States
C3IX,San Luis Obispo,United States,US,United States
ChIX,Chicago,United States,US,United States
GCIIX,Chicago,United States,US,United States
Hawaii Internet eXchange,Hawaii,United States,US,United States
LAIIX,Los Angeles,United States,US,United States
Midwest Internet Cooperative Exchange,Minneapolis,United States,US,United States
Northern Lights Local Exchange Point,Minneapolis,United States,US,United States
NAP of the Americas|NAP of the Americas (NOTA),Miami,United States,US,United States
Terremark,Culpeper,United States,US,United States
NWAX,Portland,United States,US,United States
NYIIX,New York,United States,US,United States
PHLIX,Philadelphia,United States,US,United States
SFMIX,San Francisco,United States,US,United States
Seattle Internet Exchange,Seattle,United States,US,United States
SOAX,Medford,United States,US,United States
Switch and Data,PAIX,United States,US,United States
Switch and Data's Peering And Internet eXchanges,Atlanta (Georgia),United States,US,United States
Switch and Data's Peering And Internet eXchanges,Dallas (Texas),United States,US,United States
Switch and Data's Peering And Internet eXchanges,Miami (Florida),United States,US,United States
Switch and Data's Peering And Internet eXchanges,New York City (New York),United States,US,United States
Switch and Data's Peering And Internet eXchanges,Palo Alto (California),United States,US,United States
Switch and Data's Peering And Internet eXchanges,San Jose (California),United States,US,United States
Switch and Data's Peering And Internet eXchanges,Seattle (Washington),United States,US,United States
Switch and Data's Peering And Internet eXchanges,Vienna (Virginia),United States,US,United States
Puerto Rico Bridge Initiative (PRBI),San Juan,Puerto Rico,PR,Puerto Rico
PTT Metro,Belo Horizonte,Brazil,BR,Brazil
PTT Metro,Brasília,Brazil,BR,Brazil
PTT Metro,Curitiba,Brazil,BR,Brazil
PTT Metro,Florianópolis,Brazil,BR,Brazil
PTT Metro,Fortaleza,Brazil,BR,Brazil
PTT Metro,Londrina,Brazil,BR,Brazil
PTT Metro,Porto Alegre,Brazil,BR,Brazil
PTT Metro,Rio de Janeiro,Brazil,BR,Brazil
PTT Metro,Salvador de Bahia,Brazil,BR,Brazil
PTT Metro,São Paulo,Brazil,BR,Brazil
NAP do Brasil,São Paulo,Brazil,BR,Brazil
PTT Moebius,Rio de Janeiro,Brazil,BR,Brazil
